NORAD_CAT_ID,OBJECT_NAME,OBJECT_TYPE,EPOCH,MEAN_MOTION,ECCENTRICITY,INCLINATION,RA_OF_ASC_NODE,ARG_OF_PERICENTER,MEAN_ANOMALY,BSTAR,MEAN_MOTION_DOT,MEAN_MOTION_DDOT,TLE_LINE0,TLE_LINE1,TLE_LINE2,SEMIMAJOR_AXIS,PERIOD,APOGEE,PERIGEE,DECAYED
55953.0,STARLINK-5889,PAYLOAD,2023-09-27 14:00:01,15.15148175,0.000326,70.0014,359.3582,277.6893,347.5703,-0.051899,-0.0090436,0.0,0 STARLINK-5889,1 55953U 23037AR  23270.58334491 -.00904360  00000-0 -51899-1 0  9990,2 55953  70.0014 359.3582 0003260 277.6893 347.5703 15.15148175  5911,6898.666,95.04,522.78,518.282,0.0
55953.0,STARLINK-5889,PAYLOAD,2023-09-27 22:00:00,15.14522824,0.0003272,70.0013,358.496,276.7436,5.7769,-0.056256,-0.00958639,0.0,0 STARLINK-5889,1 55953U 23037AR  23270.91667824 -.00958639  00000-0 -56256-1 0  9996,2 55953  70.0013 358.4960 0003272 276.7436   5.7769 15.14522824 30926,6900.565,95.079,524.687,520.172,0.0
55953.0,STARLINK-5889,PAYLOAD,2023-09-28 14:00:01,15.13192639,0.0003359,70.0015,356.7745,279.1726,35.6088,-0.054912,-0.00905363,0.0,0 STARLINK-5889,1 55953U 23037AR  23271.58335648 -.00905363  00000-0 -54912-1 0  9999,2 55953  70.0015 356.7745 0003359 279.1726  35.6088 15.13192639 31029,6904.608,95.163,528.792,524.154,0.0
55953.0,STARLINK-5889,PAYLOAD,2023-09-28 16:00:30,15.13024315,0.0003418,70.0014,356.5585,282.0878,128.3256,-0.054359,-0.00892966,0.0,0 STARLINK-5889,1 55953U 23037AR  23271.66702546 -.00892966  00000-0 -54359-1 0  9992,2 55953  70.0014 356.5585 0003418 282.0878 128.3256 15.13024315  6029,6905.12,95.174,529.345,524.625,0.0
55953.0,STARLINK-5889,PAYLOAD,2023-09-28 22:00:01,15.12563683,0.000332,70.0014,355.9148,278.309,51.3887,-0.059261,-0.00955857,0.0,0 STARLINK-5889,1 55953U 23037AR  23271.91668981 -.00955857  00000-0 -59261-1 0  9990,2 55953  70.0014 355.9148 0003320 278.3090  51.3887 15.12563683  5965,6906.522,95.203,530.68,526.094,0.0
55953.0,STARLINK-5889,PAYLOAD,2023-09-29 06:00:00,15.11902177,0.0003328,70.0017,355.0564,273.7798,69.9887,-0.057613,-0.00915388,0.0,0 STARLINK-5889,1 55953U 23037AR  23272.25001157 -.00915388  00000-0 -57613-1 0  9998,2 55953  70.0017 355.0564 0003328 273.7798  69.9887 15.11902177 31129,6908.536,95.244,532.701,528.102,0.0
55953.0,STARLINK-5889,PAYLOAD,2023-09-29 14:00:01,15.11230345,0.0003303,70.0014,354.1986,277.9784,79.1605,-0.057322,-0.00895393,0.0,0 STARLINK-5889,1 55953U 23037AR  23272.58334491 -.00895393  00000-0 -57322-1 0  9994,2 55953  70.0014 354.1986 0003303 277.9784  79.1605 15.11230345  5963,6910.584,95.287,534.731,530.166,0.0
55953.0,STARLINK-5889,PAYLOAD,2023-09-29 22:00:00,15.10603943,0.0003256,70.0012,353.3416,275.2776,94.4307,-0.062267,-0.00951309,0.0,0 STARLINK-5889,1 55953U 23037AR  23272.91667824 -.00951309  00000-0 -62267-1 0  9994,2 55953  70.0012 353.3416 0003256 275.2776  94.4307 15.10603943 31223,6912.494,95.326,536.61,532.108,0.0
55953.0,STARLINK-5889,PAYLOAD,2023-09-30 06:00:00,15.09948039,0.000331,70.0014,352.4856,271.7609,109.7327,-0.061168,-0.00920164,0.0,0 STARLINK-5889,1 55953U 23037AR  23273.25001157 -.00920164  00000-0 -61168-1 0  9997,2 55953  70.0014 352.4856 0003310 271.7609 109.7327 15.09948039  5847,6914.496,95.368,538.649,534.072,0.0
55953.0,STARLINK-5889,PAYLOAD,2023-09-30 14:00:01,15.09278003,0.0003327,70.0012,351.6303,277.8761,114.6405,-0.061061,-0.00903062,0.0,0 STARLINK-5889,1 55953U 23037AR  23273.58334491 -.00903062  00000-0 -61061-1 0  9993,2 55953  70.0012 351.6303 0003327 277.8761 114.6405 15.09278003 31328,6916.542,95.41,540.708,536.106,0.0
55953.0,STARLINK-5889,PAYLOAD,2023-10-01 06:00:00,15.0799405,0.0003316,70.001,349.9225,273.2368,138.9411,-0.064909,-0.00925007,0.0,0 STARLINK-5889,1 55953U 23037AR  23274.25001157 -.00925007  00000-0 -64909-1 0  9995,2 55953  70.0010 349.9225 0003316 273.2368 138.9411 15.07994050 31422,6920.467,95.491,544.627,540.038,0.0
55953.0,STARLINK-5889,PAYLOAD,2023-10-01 14:00:01,15.07320071,0.0003313,70.0007,349.0698,279.2456,141.6092,-0.064226,-0.00900486,0.0,0 STARLINK-5889,1 55953U 23037AR  23274.58334491 -.00900486  00000-0 -64226-1 0  9997,2 55953  70.0007 349.0698 0003313 279.2456 141.6092 15.07320071  5832,6922.53,95.534,546.689,542.102,0.0
55953.0,STARLINK-5889,PAYLOAD,2023-10-01 22:00:00,15.06684985,0.0003225,70.0005,348.218,277.0292,151.7035,-0.068574,-0.00941629,0.0,0 STARLINK-5889,1 55953U 23037AR  23274.91667824 -.00941629  00000-0 -68574-1 0  9997,2 55953  70.0005 348.2180 0003225 277.0292 151.7035 15.06684985  5883,6924.475,95.574,548.573,544.107,0.0
55953.0,STARLINK-5889,PAYLOAD,2023-10-02 06:00:00,15.0603923,0.0003276,70.0006,347.3671,274.5426,161.2796,-0.068816,-0.0092953,0.0,0 STARLINK-5889,1 55953U 23037AR  23275.25001157 -.00929530  00000-0 -68816-1 0  9992,2 55953  70.0006 347.3671 0003276 274.5426 161.2796 15.06039230 31578,6926.454,95.615,550.589,546.05,0.0
55953.0,STARLINK-5889,PAYLOAD,2023-10-02 22:00:00,15.04724472,0.0003175,70.0001,345.6675,277.7846,169.9003,-0.071743,-0.00934855,0.0,0 STARLINK-5889,1 55953U 23037AR  23275.91667824 -.00934855  00000-0 -71743-1 0  9993,2 55953  70.0001 345.6675 0003175 277.7846 169.9003 15.04724472  6044,6930.489,95.699,554.554,550.153,0.0
55953.0,STARLINK-5889,PAYLOAD,2023-10-03 14:00:01,15.03401568,0.0003265,70.0,343.9713,281.3115,175.0999,-0.070724,-0.00892751,0.0,0 STARLINK-5889,1 55953U 23037AR  23276.58334491 -.00892751  00000-0 -70724-1 0  9994,2 55953  70.0000 343.9713 0003265 281.3115 175.0999 15.03401568 31774,6934.554,95.783,558.683,554.154,0.0
55953.0,STARLINK-5889,PAYLOAD,2023-10-03 22:00:00,15.0276308,0.0003151,69.9999,343.1247,278.0516,181.5444,-0.074911,-0.00926881,0.0,0 STARLINK-5889,1 55953U 23037AR  23276.91667824 -.00926881  00000-0 -74911-1 0  9994,2 55953  69.9999 343.1247 0003151 278.0516 181.5444 15.02763080  6042,6936.518,95.823,560.568,556.197,0.0
55953.0,STARLINK-5889,PAYLOAD,2023-10-04 06:00:00,15.02126744,0.0003182,70.0001,342.2801,274.1957,187.7933,-0.076556,-0.00931024,0.0,0 STARLINK-5889,1 55953U 23037AR  23277.25001157 -.00931024  00000-0 -76556-1 0  9995,2 55953  70.0001 342.2801 0003182 274.1957 187.7933 15.02126744 31875,6938.477,95.864,562.549,558.134,0.0
55953.0,STARLINK-5889,PAYLOAD,2023-10-04 14:00:01,15.01443441,0.0003276,69.9999,341.4334,281.2999,182.3283,-0.074267,-0.00890163,0.0,0 STARLINK-5889,1 55953U 23037AR  23277.58334491 -.00890163  00000-0 -74267-1 0  9996,2 55953  69.9999 341.4334 0003276 281.2999 182.3283 15.01443441  5751,6940.581,95.908,564.72,560.173,0.0
55953.0,STARLINK-5889,PAYLOAD,2023-10-04 22:00:01,15.00801585,0.0003148,69.9997,340.5891,277.6022,186.9272,-0.078128,-0.00918429,0.0,0 STARLINK-5889,1 55953U 23037AR  23277.91668981 -.00918429  00000-0 -78128-1 0  9993,2 55953  69.9997 340.5891 0003148 277.6022 186.9272 15.00801585  5812,6942.56,95.949,566.611,562.24,0.0
55953.0,STARLINK-5889,PAYLOAD,2023-10-05 14:00:01,14.99328216,0.0003402,69.9998,338.9038,278.5937,185.2289,-0.0031411,-0.00038348,0.0,0 STARLINK-5889,1 55953U 23037AR  23278.58334491 -.00038348  00000-0 -31411-2 0  9991,2 55953  69.9998 338.9038 0003402 278.5937 185.2289 14.99328216 32075,6947.108,96.043,571.336,566.609,0.0
55953.0,STARLINK-5889,PAYLOAD,2023-10-05 22:00:00,14.9929345,0.0003292,69.9999,338.0634,274.6167,187.873,-0.00071963,-8.887e-05,0.0,0 STARLINK-5889,1 55953U 23037AR  23278.91667824 -.00008887  00000-0 -71963-3 0  9999,2 55953  69.9999 338.0634 0003292 274.6167 187.8730 14.99293450  5966,6947.215,96.045,571.367,566.793,0.0
55953.0,STARLINK-5889,PAYLOAD,2023-10-06 06:00:00,14.9930044,0.0003168,70.0001,337.2231,269.8547,191.2663,1.9967e-06,-6.9e-07,0.0,0 STARLINK-5889,1 55953U 23037AR  23279.25001157 -.00000069  00000-0  19967-5 0  9999,2 55953  70.0001 337.2231 0003168 269.8547 191.2663 14.99300440 32172,6947.194,96.045,571.259,566.858,0.0
55953.0,STARLINK-5889,PAYLOAD,2023-10-06 14:00:01,14.99298242,0.0003147,70.0002,336.3824,272.217,187.615,0.00033726,4.035e-05,0.0,0 STARLINK-5889,1 55953U 23037AR  23279.58335648  .00004035  00000-0  33726-3 0  9993,2 55953  70.0002 336.3824 0003147 272.2170 187.6150 14.99298242  6074,6947.2,96.045,571.252,566.879,0.0
55953.0,STARLINK-5889,PAYLOAD,2023-10-06 22:00:01,14.99278919,0.0003165,70.0001,335.5417,268.2222,190.2608,0.005294,0.00065252,0.0,0 STARLINK-5889,1 55953U 23037AR  23279.91668981  .00065252  00000-0  52940-2 0  9995,2 55953  70.0001 335.5417 0003165 268.2222 190.2608 14.99278919  6128,6947.26,96.046,571.324,566.926,0.0
55953.0,STARLINK-5889,PAYLOAD,2023-10-07 14:00:01,14.992948,0.0003241,70.0003,333.852,272.5873,183.1514,0.0001137,1.297e-05,0.0,0 STARLINK-5889,1 55953U 23037AR  23280.58334491  .00001297  00000-0  11370-3 0  9998,2 55953  70.0003 333.8520 0003241 272.5873 183.1514 14.99294800 32371,6947.211,96.045,571.328,566.824,0.0
55953.0,STARLINK-5889,PAYLOAD,2023-10-07 22:00:00,14.99271166,0.0003223,70.0005,333.0103,267.111,187.2754,0.003139,0.00038497,0.0,0 STARLINK-5889,1 55953U 23037AR  23280.91667824  .00038497  00000-0  31390-2 0  9999,2 55953  70.0005 333.0103 0003223 267.1110 187.2754 14.99271166  5850,6947.284,96.047,571.388,566.91,0.0
55953.0,STARLINK-5889,PAYLOAD,2023-10-08 14:00:01,14.99283421,0.0003161,70.0004,331.3268,273.748,177.9291,0.0017742,0.00021673,0.0,0 STARLINK-5889,1 55953U 23037AR  23281.58334491  .00021673  00000-0  17742-2 0  9997,2 55953  70.0004 331.3268 0003161 273.7480 177.9291 14.99283421  5956,6947.246,96.046,571.307,566.915,0.0
55953.0,STARLINK-5889,PAYLOAD,2023-10-08 22:00:00,14.99273899,0.0003079,70.0005,330.4851,269.5908,180.7334,0.0038327,0.00047086,0.0,0 STARLINK-5889,1 55953U 23037AR  23281.91667824  .00047086  00000-0  38327-2 0  9991,2 55953  70.0005 330.4851 0003079 269.5908 180.7334 14.99273899 32577,6947.275,96.046,571.28,567.001,0.0
55953.0,STARLINK-5889,PAYLOAD,2023-10-09 08:48:26,14.99302029,0.0002695,69.9995,329.3512,267.1692,92.9159,-5.1859e-06,-1.57e-06,0.0,0 STARLINK-5889,1 55953U 23037AR  23282.36697341 -.00000157  00000-0 -51859-5 0  9996,2 55953  69.9995 329.3512 0002695 267.1692  92.9159 14.99302029 32645,6947.189,96.045,570.926,567.181,0.0
